[{"OBJECT_NAME":"STARLINK-1624","OBJECT_ID":"2020-057P","EPOCH":"2026-03-10T00:00:02.999808","MEAN_MOTION":15.68159276,"ECCENTRICITY":0.00046049,"INCLINATION":53.0462,"RA_OF_ASC_NODE":230.801,"ARG_OF_PERICENTER":319.1645,"MEAN_ANOMALY":185.2819,"EPHEMERIS_TYPE":0,"CLASSIFICATION_TYPE":"U","NORAD_CAT_ID":46130,"ELEMENT_SET_NO":999,"REV_AT_EPOCH":580,"BSTAR":0.0011533861,"MEAN_MOTION_DOT":0.00132696,"MEAN_MOTION_DDOT":0},{"OBJECT_NAME":"STARLINK-11327 [DTC]","OBJECT_ID":"2024-195J","EPOCH":"2026-03-09T07:10:36.541056","MEAN_MOTION":15.69698529,"ECCENTRICITY":0.00010191,"INCLINATION":53.1591,"RA_OF_ASC_NODE":28.0816,"ARG_OF_PERICENTER":100.8435,"MEAN_ANOMALY":259.2698,"EPHEMERIS_TYPE":0,"CLASSIFICATION_TYPE":"U","NORAD_CAT_ID":61695,"ELEMENT_SET_NO":999,"REV_AT_EPOCH":7897,"BSTAR":1.2750584e-5,"MEAN_MOTION_DOT":9.56e-6,"MEAN_MOTION_DDOT":0}]
